{
  "type": "FeatureCollection",
  "features": [
    {
      "type": "Feature",
      "properties": {
        "norad_id": 66655,
        "name": "2025-274F",
        "group": "last-30-days",
        "lat": 33.296194796430186,
        "lon": -91.43166913828075,
        "alt_km": 588.3910397154359,
        "timestamp": "2025-12-12T11:38:30.170745+00:00",
        "meta_object_name": "2025-274F",
        "meta_object_id": "2025-274F",
        "meta_epoch": "2025-12-10T14:24:20.623680",
        "meta_mean_motion": 14.91412977,
        "meta_eccentricity": 0.0004698,
        "meta_inclination": 97.7323,
        "meta_ra_of_asc_node": 271.8405,
        "meta_arg_of_pericenter": 22.2473,
        "meta_mean_anomaly": 337.8948,
        "meta_ephemeris_type": 0,
        "meta_classification_type": "U",
        "meta_norad_cat_id": 66655,
        "meta_element_set_no": 999,
        "meta_rev_at_epoch": 208,
        "meta_bstar": 1.9321e-05,
        "meta_mean_motion_dot": 1.38e-06,
        "meta_mean_motion_ddot": 0,
        "tle_line1": "1 66655U 25274F   25344.60023870  .00000138  00000+0  19321-4 0  9993",
        "tle_line2": "2 66655  97.7323 271.8405 0004698  22.2473 337.8948 14.91412977  2082"
      },
      "geometry": {
        "type": "Point",
        "coordinates": [
          -91.43166913828075,
          33.296194796430186
        ]
      }
    },
    {
      "type": "Feature",
      "properties": {
        "norad_id": 66656,
        "name": "2025-274G",
        "group": "last-30-days",
        "lat": 37.55205674153328,
        "lon": -92.309393239312,
        "alt_km": 594.7525861901386,
        "timestamp": "2025-12-12T11:38:30.170755+00:00",
        "meta_object_name": "2025-274G",
        "meta_object_id": "2025-274G",
        "meta_epoch": "2025-12-11T14:33:04.434912",
        "meta_mean_motion": 14.92262161,
        "meta_eccentricity": 0.00124031,
        "meta_inclination": 97.7384,
        "meta_ra_of_asc_node": 272.8279,
        "meta_arg_of_pericenter": 261.3024,
        "meta_mean_anomaly": 98.679,
        "meta_ephemeris_type": 0,
        "meta_classification_type": "U",
        "meta_norad_cat_id": 66656,
        "meta_element_set_no": 999,
        "meta_rev_at_epoch": 223,
        "meta_bstar": 0.00050921088,
        "meta_mean_motion_dot": 5.148e-05,
        "meta_mean_motion_ddot": 0,
        "tle_line1": "1 66656U 25274G   25345.60630133  .00005148  00000+0  50921-3 0  9997",
        "tle_line2": "2 66656  97.7384 272.8279 0012403 261.3024  98.6790 14.92262161  2234"
      },
      "geometry": {
        "type": "Point",
        "coordinates": [
          -92.309393239312,
          37.55205674153328
        ]
      }
    },
    {
      "type": "Feature",
      "properties": {
        "norad_id": 66657,
        "name": "SPIRONE",
        "group": "last-30-days",
        "lat": 47.570002766454934,
        "lon": -94.85983845557644,
        "alt_km": 591.0273176376922,
        "timestamp": "2025-12-12T11:38:30.170768+00:00",
        "meta_object_name": "SPIRONE",
        "meta_object_id": "2025-274H",
        "meta_epoch": "2025-12-11T17:43:35.609376",
        "meta_mean_motion": 14.92442635,
        "meta_eccentricity": 0.00108031,
        "meta_inclination": 97.7381,
        "meta_ra_of_asc_node": 272.9615,
        "meta_arg_of_pericenter": 279.797,
        "meta_mean_anomaly": 80.2029,
        "meta_ephemeris_type": 0,
        "meta_classification_type": "U",
        "meta_norad_cat_id": 66657,
        "meta_element_set_no": 999,
        "meta_rev_at_epoch": 225,
        "meta_bstar": 0.0004937733,
        "meta_mean_motion_dot": 5.011e-05,
        "meta_mean_motion_ddot": 0,
        "tle_line1": "1 66657U 25274H   25345.73860659  .00005011  00000+0  49377-3 0  9992",
        "tle_line2": "2 66657  97.7381 272.9615 0010803 279.7970  80.2029 14.92442635  2252"
      },
      "geometry": {
        "type": "Point",
        "coordinates": [
          -94.85983845557644,
          47.570002766454934
        ]
      }
    },
    {
      "type": "Feature",
      "properties": {
        "norad_id": 66658,
        "name": "2025-274J",
        "group": "last-30-days",
        "lat": 57.22582412038351,
        "lon": -98.49346067896312,
        "alt_km": 590.1611186793007,
        "timestamp": "2025-12-12T11:38:30.170778+00:00",
        "meta_object_name": "2025-274J",
        "meta_object_id": "2025-274J",
        "meta_epoch": "2025-12-11T17:41:03.726816",
        "meta_mean_motion": 14.92613825,
        "meta_eccentricity": 0.00113728,
        "meta_inclination": 97.7381,
        "meta_ra_of_asc_node": 272.9639,
        "meta_arg_of_pericenter": 282.7492,
        "meta_mean_anomaly": 77.2456,
        "meta_ephemeris_type": 0,
        "meta_classification_type": "U",
        "meta_norad_cat_id": 66658,
        "meta_element_set_no": 999,
        "meta_rev_at_epoch": 225,
        "meta_bstar": 0.00047071254,
        "meta_mean_motion_dot": 4.796e-05,
        "meta_mean_motion_ddot": 0,
        "tle_line1": "1 66658U 25274J   25345.73684869  .00004796  00000+0  47071-3 0  9998",
        "tle_line2": "2 66658  97.7381 272.9639 0011372 282.7492  77.2456 14.92613825  2255"
      },
      "geometry": {
        "type": "Point",
        "coordinates": [
          -98.49346067896312,
          57.22582412038351
        ]
      }
    },
    {
      "type": "Feature",
      "properties": {
        "norad_id": 66659,
        "name": "JACK K",
        "group": "last-30-days",
        "lat": 67.3168278597497,
        "lon": -105.2810606787919,
        "alt_km": 589.7104586167006,
        "timestamp": "2025-12-12T11:38:30.170790+00:00",
        "meta_object_name": "JACK K",
        "meta_object_id": "2025-274K",
        "meta_epoch": "2025-12-11T19:14:53.218176",
        "meta_mean_motion": 14.92799568,
        "meta_eccentricity": 0.00120933,
        "meta_inclination": 97.7381,
        "meta_ra_of_asc_node": 273.0328,
        "meta_arg_of_pericenter": 283.9238,
        "meta_mean_anomaly": 76.0636,
        "meta_ephemeris_type": 0,
        "meta_classification_type": "U",
        "meta_norad_cat_id": 66659,
        "meta_element_set_no": 999,
        "meta_rev_at_epoch": 226,
        "meta_bstar": 0.00046013436,
        "meta_mean_motion_dot": 4.709e-05,
        "meta_mean_motion_ddot": 0,
        "tle_line1": "1 66659U 25274K   25345.80200484  .00004709  00000+0  46013-3 0  9993",
        "tle_line2": "2 66659  97.7381 273.0328 0012093 283.9238  76.0636 14.92799568  2262"
      },
      "geometry": {
        "type": "Point",
        "coordinates": [
          -105.2810606787919,
          67.3168278597497
        ]
      }
    },
    {
      "type": "Feature",
      "properties": {
        "norad_id": 66660,
        "name": "K-HERO",
        "group": "last-30-days",
        "lat": 75.01959726096833,
        "lon": -116.83463740386391,
        "alt_km": 589.6351039196661,
        "timestamp": "2025-12-12T11:38:30.170800+00:00",
        "meta_object_name": "K-HERO",
        "meta_object_id": "2025-274L",
        "meta_epoch": "2025-12-11T15:59:40.440192",
        "meta_mean_motion": 14.92949324,
        "meta_eccentricity": 0.00127402,
        "meta_inclination": 97.7385,
        "meta_ra_of_asc_node": 272.9035,
        "meta_arg_of_pericenter": 284.9144,
        "meta_mean_anomaly": 75.0665,
        "meta_ephemeris_type": 0,
        "meta_classification_type": "U",
        "meta_norad_cat_id": 66660,
        "meta_element_set_no": 999,
        "meta_rev_at_epoch": 224,
        "meta_bstar": 0.00044641678,
        "meta_mean_motion_dot": 4.585e-05,
        "meta_mean_motion_ddot": 0,
        "tle_line1": "1 66660U 25274L   25345.66644028  .00004585  00000+0  44642-3 0  9993",
        "tle_line2": "2 66660  97.7385 272.9035 0012740 284.9144  75.0665 14.92949324  2243"
      },
      "geometry": {
        "type": "Point",
        "coordinates": [
          -116.83463740386391,
          75.01959726096833
        ]
      }
    },
    {
      "type": "Feature",
      "properties": {
        "norad_id": 66661,
        "name": "SNUGLITE-III",
        "group": "last-30-days",
        "lat": 81.10304760572527,
        "lon": -146.5897212697868,
        "alt_km": 589.787263250726,
        "timestamp": "2025-12-12T11:38:30.170810+00:00",
        "meta_object_name": "SNUGLITE-III",
        "meta_object_id": "2025-274M",
        "meta_epoch": "2025-12-11T15:57:30.678624",
        "meta_mean_motion": 14.93088106,
        "meta_eccentricity": 0.00134413,
        "meta_inclination": 97.7383,
        "meta_ra_of_asc_node": 272.905,
        "meta_arg_of_pericenter": 286.0161,
        "meta_mean_anomaly": 73.9578,
        "meta_ephemeris_type": 0,
        "meta_classification_type": "U",
        "meta_norad_cat_id": 66661,
        "meta_element_set_no": 999,
        "meta_rev_at_epoch": 224,
        "meta_bstar": 0.00038412254,
        "meta_mean_motion_dot": 3.952e-05,
        "meta_mean_motion_ddot": 0,
        "tle_line1": "1 66661U 25274M   25345.66493841  .00003952  00000+0  38412-3 0  9994",
        "tle_line2": "2 66661  97.7383 272.9050 0013441 286.0161  73.9578 14.93088106  2243"
      },
      "geometry": {
        "type": "Point",
        "coordinates": [
          -146.5897212697868,
          81.10304760572527
        ]
      }
    }
  ]
}